[{"OBJECT_NAME":"CENTISPACE-1 OBJECT K","OBJECT_ID":"2026-060K","EPOCH":"2026-04-04T04:04:21.375840","MEAN_MOTION":14.75501463,"ECCENTRICITY":0.00150386,"INCLINATION":54.9784,"RA_OF_ASC_NODE":337.6182,"ARG_OF_PERICENTER":331.1576,"MEAN_ANOMALY":28.8591,"EPHEMERIS_TYPE":0,"CLASSIFICATION_TYPE":"U","NORAD_CAT_ID":68359,"ELEMENT_SET_NO":999,"REV_AT_EPOCH":185,"BSTAR":4.9717379e-5,"MEAN_MOTION_DOT":1.3e-6,"MEAN_MOTION_DDOT":0},{"OBJECT_NAME":"RASSVET-3 1","OBJECT_ID":"2026-061A","EPOCH":"2026-04-07T03:21:36.279936","MEAN_MOTION":15.90714548,"ECCENTRICITY":0.00241778,"INCLINATION":82.2957,"RA_OF_ASC_NODE":92.3625,"ARG_OF_PERICENTER":22.2866,"MEAN_ANOMALY":337.9451,"EPHEMERIS_TYPE":0,"CLASSIFICATION_TYPE":"U","NORAD_CAT_ID":68360,"ELEMENT_SET_NO":999,"REV_AT_EPOCH":229,"BSTAR":0.00045861342,"MEAN_MOTION_DOT":0.00145466,"MEAN_MOTION_DDOT":6.380189e-6},{"OBJECT_NAME":"RASSVET-3 2","OBJECT_ID":"2026-061B","EPOCH":"2026-04-07T04:58:03.799488","MEAN_MOTION":15.89476822,"ECCENTRICITY":0.00255185,"INCLINATION":82.2974,"RA_OF_ASC_NODE":92.299,"ARG_OF_PERICENTER":21.0799,"MEAN_ANOMALY":339.1518,"EPHEMERIS_TYPE":0,"CLASSIFICATION_TYPE":"U","NORAD_CAT_ID":68361,"ELEMENT_SET_NO":999,"REV_AT_EPOCH":230,"BSTAR":0.00023116304,"MEAN_MOTION_DOT":0.0006923,"MEAN_MOTION_DDOT":5.33935e-7},{"OBJECT_NAME":"RASSVET-3 3","OBJECT_ID":"2026-061C","EPOCH":"2026-04-07T04:57:50.341824","MEAN_MOTION":15.89474622,"ECCENTRICITY":0.00253732,"INCLINATION":82.2974,"RA_OF_ASC_NODE":92.2985,"ARG_OF_PERICENTER":20.9053,"MEAN_ANOMALY":339.325,"EPHEMERIS_TYPE":0,"CLASSIFICATION_TYPE":"U","NORAD_CAT_ID":68362,"ELEMENT_SET_NO":999,"REV_AT_EPOCH":230,"BSTAR":0.00022580946,"MEAN_MOTION_DOT":0.00067605,"MEAN_MOTION_DDOT":4.57107e-7},{"OBJECT_NAME":"RASSVET-3 4","OBJECT_ID":"2026-061D","EPOCH":"2026-04-07T04:57:34.521984","MEAN_MOTION":15.89490891,"ECCENTRICITY":0.002536,"INCLINATION":82.2974,"RA_OF_ASC_NODE":92.2985,"ARG_OF_PERICENTER":20.7845,"MEAN_ANOMALY":339.4451,"EPHEMERIS_TYPE":0,"CLASSIFICATION_TYPE":"U","NORAD_CAT_ID":68363,"ELEMENT_SET_NO":999,"REV_AT_EPOCH":230,"BSTAR":0.00022634239,"MEAN_MOTION_DOT":0.00067818,"MEAN_MOTION_DDOT":4.67346e-7},{"OBJECT_NAME":"RASSVET-3 5","OBJECT_ID":"2026-061E","EPOCH":"2026-04-07T04:57:19.674144","MEAN_MOTION":15.89513567,"ECCENTRICITY":0.00253479,"INCLINATION":82.2974,"RA_OF_ASC_NODE":92.2979,"ARG_OF_PERICENTER":20.7998,"MEAN_ANOMALY":339.4299,"EPHEMERIS_TYPE":0,"CLASSIFICATION_TYPE":"U","NORAD_CAT_ID":68364,"ELEMENT_SET_NO":999,"REV_AT_EPOCH":230,"BSTAR":0.00023160599,"MEAN_MOTION_DOT":0.00069464,"MEAN_MOTION_DDOT":5.45913e-7},{"OBJECT_NAME":"RASSVET-3 6","OBJECT_ID":"2026-061F","EPOCH":"2026-04-07T04:56:22.435008","MEAN_MOTION":15.89713016,"ECCENTRICITY":0.0025121,"INCLINATION":82.2973,"RA_OF_ASC_NODE":92.2969,"ARG_OF_PERICENTER":21.0092,"MEAN_ANOMALY":339.2205,"EPHEMERIS_TYPE":0,"CLASSIFICATION_TYPE":"U","NORAD_CAT_ID":68365,"ELEMENT_SET_NO":999,"REV_AT_EPOCH":230,"BSTAR":0.00022043334,"MEAN_MOTION_DOT":0.00066766,"MEAN_MOTION_DDOT":4.2171e-7},{"OBJECT_NAME":"RASSVET-3 7","OBJECT_ID":"2026-061G","EPOCH":"2026-04-07T04:56:55.965120","MEAN_MOTION":15.89543143,"ECCENTRICITY":0.00251152,"INCLINATION":82.2974,"RA_OF_ASC_NODE":92.2978,"ARG_OF_PERICENTER":20.8994,"MEAN_ANOMALY":339.3298,"EPHEMERIS_TYPE":0,"CLASSIFICATION_TYPE":"U","NORAD_CAT_ID":68366,"ELEMENT_SET_NO":999,"REV_AT_EPOCH":230,"BSTAR":0.00022632774,"MEAN_MOTION_DOT":0.00067955,"MEAN_MOTION_DDOT":4.74641e-7},{"OBJECT_NAME":"RASSVET-3 8","OBJECT_ID":"2026-061H","EPOCH":"2026-04-07T04:57:06.438528","MEAN_MOTION":15.89526801,"ECCENTRICITY":0.0025126,"INCLINATION":82.2974,"RA_OF_ASC_NODE":92.2976,"ARG_OF_PERICENTER":20.7646,"MEAN_ANOMALY":339.464,"EPHEMERIS_TYPE":0,"CLASSIFICATION_TYPE":"U","NORAD_CAT_ID":68367,"ELEMENT_SET_NO":999,"REV_AT_EPOCH":230,"BSTAR":0.00022359429,"MEAN_MOTION_DOT":0.00067085,"MEAN_MOTION_DDOT":4.33782e-7},{"OBJECT_NAME":"RASSVET-3 9","OBJECT_ID":"2026-061J","EPOCH":"2026-04-07T04:53:12.498432","MEAN_MOTION":15.90129428,"ECCENTRICITY":0.00248255,"INCLINATION":82.2961,"RA_OF_ASC_NODE":92.2926,"ARG_OF_PERICENTER":21.7737,"MEAN_ANOMALY":338.4584,"EPHEMERIS_TYPE":0,"CLASSIFICATION_TYPE":"U","NORAD_CAT_ID":68368,"ELEMENT_SET_NO":999,"REV_AT_EPOCH":230,"BSTAR":0.00042795967,"MEAN_MOTION_DOT":0.00131961,"MEAN_MOTION_DDOT":4.994773e-6},{"OBJECT_NAME":"RASSVET-3 10","OBJECT_ID":"2026-061K","EPOCH":"2026-04-07T04:56:29.798880","MEAN_MOTION":15.89579646,"ECCENTRICITY":0.00249805,"INCLINATION":82.2975,"RA_OF_ASC_NODE":92.2973,"ARG_OF_PERICENTER":20.7704,"MEAN_ANOMALY":339.4576,"EPHEMERIS_TYPE":0,"CLASSIFICATION_TYPE":"U","NORAD_CAT_ID":68369,"ELEMENT_SET_NO":999,"REV_AT_EPOCH":230,"BSTAR":0.00023208812,"MEAN_MOTION_DOT":0.00069783,"MEAN_MOTION_DDOT":5.62503e-7},{"OBJECT_NAME":"RASSVET-3 11","OBJECT_ID":"2026-061L","EPOCH":"2026-04-07T04:55:56.105472","MEAN_MOTION":15.89614773,"ECCENTRICITY":0.00247913,"INCLINATION":82.2975,"RA_OF_ASC_NODE":92.2965,"ARG_OF_PERICENTER":20.6773,"MEAN_ANOMALY":339.5496,"EPHEMERIS_TYPE":0,"CLASSIFICATION_TYPE":"U","NORAD_CAT_ID":68370,"ELEMENT_SET_NO":999,"REV_AT_EPOCH":230,"BSTAR":0.00022963382,"MEAN_MOTION_DOT":0.00069143,"MEAN_MOTION_DDOT":5.32327e-7},{"OBJECT_NAME":"RASSVET-3 12","OBJECT_ID":"2026-061M","EPOCH":"2026-04-07T04:55:22.247904","MEAN_MOTION":15.89682165,"ECCENTRICITY":0.00247042,"INCLINATION":82.2975,"RA_OF_ASC_NODE":92.296,"ARG_OF_PERICENTER":20.6693,"MEAN_ANOMALY":339.5572,"EPHEMERIS_TYPE":0,"CLASSIFICATION_TYPE":"U","NORAD_CAT_ID":68371,"ELEMENT_SET_NO":999,"REV_AT_EPOCH":230,"BSTAR":0.00023228872,"MEAN_MOTION_DOT":0.00070163,"MEAN_MOTION_DDOT":5.82758e-7},{"OBJECT_NAME":"RASSVET-3 13","OBJECT_ID":"2026-061N","EPOCH":"2026-04-07T04:55:07.692960","MEAN_MOTION":15.89680686,"ECCENTRICITY":0.00245434,"INCLINATION":82.2975,"RA_OF_ASC_NODE":92.2956,"ARG_OF_PERICENTER":20.5923,"MEAN_ANOMALY":339.6332,"EPHEMERIS_TYPE":0,"CLASSIFICATION_TYPE":"U","NORAD_CAT_ID":68372,"ELEMENT_SET_NO":999,"REV_AT_EPOCH":230,"BSTAR":0.000231977,"MEAN_MOTION_DOT":0.0007004,"MEAN_MOTION_DDOT":5.76786e-7},{"OBJECT_NAME":"RASSVET-3 14","OBJECT_ID":"2026-061P","EPOCH":"2026-04-07T04:54:16.907040","MEAN_MOTION":15.89764068,"ECCENTRICITY":0.00244504,"INCLINATION":82.2975,"RA_OF_ASC_NODE":92.2949,"ARG_OF_PERICENTER":20.4258,"MEAN_ANOMALY":339.7985,"EPHEMERIS_TYPE":0,"CLASSIFICATION_TYPE":"U","NORAD_CAT_ID":68373,"ELEMENT_SET_NO":999,"REV_AT_EPOCH":230,"BSTAR":0.00023288173,"MEAN_MOTION_DOT":0.00070594,"MEAN_MOTION_DDOT":6.05343e-7},{"OBJECT_NAME":"RASSVET-3 15","OBJECT_ID":"2026-061Q","EPOCH":"2026-04-07T04:54:02.134368","MEAN_MOTION":15.89935824,"ECCENTRICITY":0.00240382,"INCLINATION":82.2973,"RA_OF_ASC_NODE":92.2947,"ARG_OF_PERICENTER":20.5265,"MEAN_ANOMALY":339.6967,"EPHEMERIS_TYPE":0,"CLASSIFICATION_TYPE":"U","NORAD_CAT_ID":68374,"ELEMENT_SET_NO":999,"REV_AT_EPOCH":230,"BSTAR":0.00042624951,"MEAN_MOTION_DOT":0.00129925,"MEAN_MOTION_DDOT":4.79267e-6}]
