CENTISPACE-1 OBJECT K   
1 68359U 26060K   26094.16969185  .00000130  00000+0  49717-4 0  9996
2 68359  54.9784 337.6182 0015038 331.1576  28.8591 14.75501463  1856
RASSVET-3 1             
1 68360U 26061A   26097.14000324  .00145466  63802-5  45861-3 0  9993
2 68360  82.2957  92.3625 0024177  22.2866 337.9451 15.90714548  2291
RASSVET-3 2             
1 68361U 26061B   26097.20698842  .00069230  53393-6  23116-3 0  9997
2 68361  82.2974  92.2990 0025518  21.0799 339.1518 15.89476822  2305
RASSVET-3 3             
1 68362U 26061C   26097.20683266  .00067605  45711-6  22581-3 0  9996
2 68362  82.2974  92.2985 0025373  20.9053 339.3250 15.89474622  2301
RASSVET-3 4             
1 68363U 26061D   26097.20664956  .00067818  46735-6  22634-3 0  9994
2 68363  82.2974  92.2985 0025360  20.7845 339.4451 15.89490891  2305
RASSVET-3 5             
1 68364U 26061E   26097.20647771  .00069464  54591-6  23161-3 0  9995
2 68364  82.2974  92.2979 0025347  20.7998 339.4299 15.89513567  2309
RASSVET-3 6             
1 68365U 26061F   26097.20581522  .00066766  42171-6  22043-3 0  9998
2 68365  82.2973  92.2969 0025121  21.0092 339.2205 15.89713016  2303
RASSVET-3 7             
1 68366U 26061G   26097.20620330  .00067955  47464-6  22633-3 0  9996
2 68366  82.2974  92.2978 0025115  20.8994 339.3298 15.89543143  2301
RASSVET-3 8             
1 68367U 26061H   26097.20632452  .00067085  43378-6  22359-3 0  9994
2 68367  82.2974  92.2976 0025126  20.7646 339.4640 15.89526801  2309
RASSVET-3 9             
1 68368U 26061J   26097.20361688  .00131961  49948-5  42796-3 0  9995
2 68368  82.2961  92.2926 0024825  21.7737 338.4584 15.90129428  2300
RASSVET-3 10            
1 68369U 26061K   26097.20590045  .00069783  56250-6  23209-3 0  9992
2 68369  82.2975  92.2973 0024980  20.7704 339.4576 15.89579646  2304
RASSVET-3 11            
1 68370U 26061L   26097.20551048  .00069143  53233-6  22963-3 0  9998
2 68370  82.2975  92.2965 0024791  20.6773 339.5496 15.89614773  2305
RASSVET-3 12            
1 68371U 26061M   26097.20511861  .00070163  58276-6  23229-3 0  9990
2 68371  82.2975  92.2960 0024704  20.6693 339.5572 15.89682165  2301
RASSVET-3 13            
1 68372U 26061N   26097.20495015  .00070040  57679-6  23198-3 0  9998
2 68372  82.2975  92.2956 0024543  20.5923 339.6332 15.89680686  2304
RASSVET-3 14            
1 68373U 26061P   26097.20436235  .00070594  60534-6  23288-3 0  9996
2 68373  82.2975  92.2949 0024450  20.4258 339.7985 15.89764068  2306
RASSVET-3 15            
1 68374U 26061Q   26097.20419137  .00129925  47927-5  42625-3 0  9998
2 68374  82.2973  92.2947 0024038  20.5265 339.6967 15.89935824  2303
